[
    {
        "Altitude(m)": 704239.3574212985,
        "Argument of Periapsis(deg)": 0.009112096949301655,
        "Eccentricity": 0.0,
        "Inclination(deg)": 45.0,
        "Latitude(deg)": -5.123121881223056,
        "Longitude(deg)": -140.72890724134854,
        "Mean Anomaly(deg)": -7.137026682015307,
        "RAAN(deg)": 324.9913984468334,
        "Satellite Name": "Constellation 1 1451",
        "Satellite Number": 1451,
        "Semi-Major Axis(m)": 7083131.272910544,
        "Time(s)": 152
    },
    {
        "Altitude(m)": 704231.3797178008,
        "Argument of Periapsis(deg)": 0.009172044955547059,
        "Eccentricity": 0.0,
        "Inclination(deg)": 45.0,
        "Latitude(deg)": -5.080089161705068,
        "Longitude(deg)": -140.68982802350828,
        "Mean Anomaly(deg)": -7.076325541765471,
        "RAAN(deg)": 324.99134185766786,
        "Satellite Name": "Constellation 1 1451",
        "Satellite Number": 1451,
        "Semi-Major Axis(m)": 7083131.272910544,
        "Time(s)": 153
    },
    {
        "Altitude(m)": 704223.4212732599,
        "Argument of Periapsis(deg)": 0.009231992961792466,
        "Eccentricity": 0.0,
        "Inclination(deg)": 45.0,
        "Latitude(deg)": -5.037053415293778,
        "Longitude(deg)": -140.65075444987193,
        "Mean Anomaly(deg)": -7.015624401515584,
        "RAAN(deg)": 324.9912852685023,
        "Satellite Name": "Constellation 1 1451",
        "Satellite Number": 1451,
        "Semi-Major Axis(m)": 7083131.272910544,
        "Time(s)": 154
    },
    {
        "Altitude(m)": 704215.482104875,
        "Argument of Periapsis(deg)": 0.009291940968037872,
        "Eccentricity": 0.0,
        "Inclination(deg)": 45.0,
        "Latitude(deg)": -4.994014667514409,
        "Longitude(deg)": -140.6116864714491,
        "Mean Anomaly(deg)": -6.954923261265646,
        "RAAN(deg)": 324.99122867933676,
        "Satellite Name": "Constellation 1 1451",
        "Satellite Number": 1451,
        "Semi-Major Axis(m)": 7083131.272910544,
        "Time(s)": 155
    },
    {
        "Altitude(m)": 704207.5622297619,
        "Argument of Periapsis(deg)": 0.009351888974283276,
        "Eccentricity": 0.0,
        "Inclination(deg)": 45.0,
        "Latitude(deg)": -4.950972943881702,
        "Longitude(deg)": -140.57262420735864,
        "Mean Anomaly(deg)": -6.8942221210157095,
        "RAAN(deg)": 324.9911720901712,
        "Satellite Name": "Constellation 1 1451",
        "Satellite Number": 1451,
        "Semi-Major Axis(m)": 7083131.272910544,
        "Time(s)": 156
    },
    {
        "Altitude(m)": 704199.6616649459,
        "Argument of Periapsis(deg)": 0.00941183698052868,
        "Eccentricity": 0.0,
        "Inclination(deg)": 45.0,
        "Latitude(deg)": -4.907928269900968,
        "Longitude(deg)": -140.5335672724402,
        "Mean Anomaly(deg)": -6.833520980765925,
        "RAAN(deg)": 324.9911155010056,
        "Satellite Name": "Constellation 1 1451",
        "Satellite Number": 1451,
        "Semi-Major Axis(m)": 7083131.272910544,
        "Time(s)": 157
    },
    {
        "Altitude(m)": 704191.7804273617,
        "Argument of Periapsis(deg)": 0.009471784986774088,
        "Eccentricity": 0.0,
        "Inclination(deg)": 45.0,
        "Latitude(deg)": -4.864880671066099,
        "Longitude(deg)": -140.494515785836,
        "Mean Anomaly(deg)": -6.772819840515937,
        "RAAN(deg)": 324.99105891184,
        "Satellite Name": "Constellation 1 1451",
        "Satellite Number": 1451,
        "Semi-Major Axis(m)": 7083131.272910544,
        "Time(s)": 158
    },
    {
        "Altitude(m)": 704183.9185338526,
        "Argument of Periapsis(deg)": 0.009531732993019492,
        "Eccentricity": 0.0,
        "Inclination(deg)": 45.0,
        "Latitude(deg)": -4.821830172861769,
        "Longitude(deg)": -140.45546969860342,
        "Mean Anomaly(deg)": -6.712118700266102,
        "RAAN(deg)": 324.99100232267443,
        "Satellite Name": "Constellation 1 1451",
        "Satellite Number": 1451,
        "Semi-Major Axis(m)": 7083131.272910544,
        "Time(s)": 159
    },
    {
        "Altitude(m)": 704176.0760011807,
        "Argument of Periapsis(deg)": 0.009591680999264898,
        "Eccentricity": 0.0,
        "Inclination(deg)": 45.0,
        "Latitude(deg)": -4.778776800762184,
        "Longitude(deg)": -140.41642896181105,
        "Mean Anomaly(deg)": -6.6514175600161645,
        "RAAN(deg)": 324.9909457335089,
        "Satellite Name": "Constellation 1 1451",
        "Satellite Number": 1451,
        "Semi-Major Axis(m)": 7083131.272910544,
        "Time(s)": 160
    },
    {
        "Altitude(m)": 704168.2528460065,
        "Argument of Periapsis(deg)": 0.009651629005510304,
        "Eccentricity": 0.0,
        "Inclination(deg)": 45.0,
        "Latitude(deg)": -4.735720580231986,
        "Longitude(deg)": -140.37739352653938,
        "Mean Anomaly(deg)": -6.590716419766278,
        "RAAN(deg)": 324.99088914434327,
        "Satellite Name": "Constellation 1 1451",
        "Satellite Number": 1451,
        "Semi-Major Axis(m)": 7083131.272910544,
        "Time(s)": 161
    },
    {
        "Altitude(m)": 704160.4490849068,
        "Argument of Periapsis(deg)": 0.00971157701175571,
        "Eccentricity": 0.0,
        "Inclination(deg)": 45.0,
        "Latitude(deg)": -4.69266153672572,
        "Longitude(deg)": -140.33836334387985,
        "Mean Anomaly(deg)": -6.53001527951634,
        "RAAN(deg)": 324.99083255517775,
        "Satellite Name": "Constellation 1 1451",
        "Satellite Number": 1451,
        "Semi-Major Axis(m)": 7083131.272910544,
        "Time(s)": 162
    },
    {
        "Altitude(m)": 704152.6647343644,
        "Argument of Periapsis(deg)": 0.009771525018001118,
        "Eccentricity": 0.0,
        "Inclination(deg)": 45.0,
        "Latitude(deg)": -4.649599695688269,
        "Longitude(deg)": -140.29933853303277,
        "Mean Anomaly(deg)": -6.469314139266555,
        "RAAN(deg)": 324.99077596601217,
        "Satellite Name": "Constellation 1 1451",
        "Satellite Number": 1451,
        "Semi-Major Axis(m)": 7083131.272910544,
        "Time(s)": 163
    },
    {
        "Altitude(m)": 704144.8998107775,
        "Argument of Periapsis(deg)": 0.00983147302424652,
        "Eccentricity": 0.0,
        "Inclination(deg)": 45.0,
        "Latitude(deg)": -4.606535082555292,
        "Longitude(deg)": -140.26031870891796,
        "Mean Anomaly(deg)": -6.408612999016567,
        "RAAN(deg)": 324.9907193768466,
        "Satellite Name": "Constellation 1 1451",
        "Satellite Number": 1451,
        "Semi-Major Axis(m)": 7083131.272910544,
        "Time(s)": 164
    },
    {
        "Altitude(m)": 704137.1543304491,
        "Argument of Periapsis(deg)": 0.009891421030491928,
        "Eccentricity": 0.0,
        "Inclination(deg)": 45.0,
        "Latitude(deg)": -4.56346772275245,
        "Longitude(deg)": -140.22130399075792,
        "Mean Anomaly(deg)": -6.347911858766629,
        "RAAN(deg)": 324.99066278768106,
        "Satellite Name": "Constellation 1 1451",
        "Satellite Number": 1451,
        "Semi-Major Axis(m)": 7083131.272910544,
        "Time(s)": 165
    },
    {
        "Altitude(m)": 704129.4283095975,
        "Argument of Periapsis(deg)": 0.009951369036737332,
        "Eccentricity": 0.0,
        "Inclination(deg)": 45.0,
        "Latitude(deg)": -4.52039764169621,
        "Longitude(deg)": -140.18229432968892,
        "Mean Anomaly(deg)": -6.2872107185167945,
        "RAAN(deg)": 324.9906061985154,
        "Satellite Name": "Constellation 1 1451",
        "Satellite Number": 1451,
        "Semi-Major Axis(m)": 7083131.272910544,
        "Time(s)": 166
    },
    {
        "Altitude(m)": 704121.7217643423,
        "Argument of Periapsis(deg)": 0.010011317042982738,
        "Eccentricity": 0.0,
        "Inclination(deg)": 45.0,
        "Latitude(deg)": -4.477324864793533,
        "Longitude(deg)": -140.1432896768582,
        "Mean Anomaly(deg)": -6.226509578266958,
        "RAAN(deg)": 324.9905496093499,
        "Satellite Name": "Constellation 1 1451",
        "Satellite Number": 1451,
        "Semi-Major Axis(m)": 7083131.272910544,
        "Time(s)": 167
    },
    {
        "Altitude(m)": 704114.0347107189,
        "Argument of Periapsis(deg)": 0.010071265049228144,
        "Eccentricity": 0.0,
        "Inclination(deg)": 45.0,
        "Latitude(deg)": -4.434249417442108,
        "Longitude(deg)": -140.10428998342348,
        "Mean Anomaly(deg)": -6.16580843801692,
        "RAAN(deg)": 324.9904930201843,
        "Satellite Name": "Constellation 1 1451",
        "Satellite Number": 1451,
        "Semi-Major Axis(m)": 7083131.272910544,
        "Time(s)": 168
    },
    {
        "Altitude(m)": 704106.3671646756,
        "Argument of Periapsis(deg)": 0.01013121305547355,
        "Eccentricity": 0.0,
        "Inclination(deg)": 45.0,
        "Latitude(deg)": -4.391171325030779,
        "Longitude(deg)": -140.06529520055366,
        "Mean Anomaly(deg)": -6.105107297767083,
        "RAAN(deg)": 324.99043643101874,
        "Satellite Name": "Constellation 1 1451",
        "Satellite Number": 1451,
        "Semi-Major Axis(m)": 7083131.272910544,
        "Time(s)": 169
    },
    {
        "Altitude(m)": 704098.7191420619,
        "Argument of Periapsis(deg)": 0.010191161061718957,
        "Eccentricity": 0.0,
        "Inclination(deg)": 45.0,
        "Latitude(deg)": -4.3480906129390124,
        "Longitude(deg)": -140.02630527942785,
        "Mean Anomaly(deg)": -6.0444061575172485,
        "RAAN(deg)": 324.99037984185316,
        "Satellite Name": "Constellation 1 1451",
        "Satellite Number": 1451,
        "Semi-Major Axis(m)": 7083131.272910544,
        "Time(s)": 170
    }
]